[{"OBJECT_NAME":"OBJECT K","OBJECT_ID":"2024-205K","EPOCH":"2026-03-09T22:22:01.331040","MEAN_MOTION":15.27932792,"ECCENTRICITY":0.00106729,"INCLINATION":97.417,"RA_OF_ASC_NODE":146.2172,"ARG_OF_PERICENTER":37.4736,"MEAN_ANOMALY":322.7246,"EPHEMERIS_TYPE":0,"CLASSIFICATION_TYPE":"U","NORAD_CAT_ID":61903,"ELEMENT_SET_NO":999,"REV_AT_EPOCH":7347,"BSTAR":0.00067315144,"MEAN_MOTION_DOT":0.00018331,"MEAN_MOTION_DDOT":0},{"OBJECT_NAME":"STARLINK-32605","OBJECT_ID":"2024-207K","EPOCH":"2026-03-09T22:44:30.431616","MEAN_MOTION":15.27605453,"ECCENTRICITY":4.399e-5,"INCLINATION":42.9992,"RA_OF_ASC_NODE":280.0992,"ARG_OF_PERICENTER":303.357,"MEAN_ANOMALY":56.724,"EPHEMERIS_TYPE":0,"CLASSIFICATION_TYPE":"U","NORAD_CAT_ID":61921,"ELEMENT_SET_NO":999,"REV_AT_EPOCH":7476,"BSTAR":0.0015555166,"MEAN_MOTION_DOT":0.00042824,"MEAN_MOTION_DDOT":0}]
